TEVEL2-9                
1 63237U 25052AD  26068.70229538  .00018694  00000+0  67240-3 0  9992
2 63237  97.4057 324.3929 0007990 124.2475 235.9522 15.28633834 54816
STARLINK-36126          
1 66866U 25281U   26067.20398657  .00021657  00000+0  79339-3 0  9995
2 66866  43.0000 352.2644 0001142 275.0337  85.0384 15.27614315 15944
